IRIDIUM 39              
1 25042U 97069D   25212.93974821  .00000634  00000+0  16060-3 0  9997
2 25042  86.3940 191.9528 0018793 150.8684 209.3573 14.49260981455445
IRIDIUM 38              
1 25043U 97069E   25212.90807761  .00000418  00000+0  13123-3 0  9990
2 25043  86.3950 214.3431 0001551  31.4287 328.7003 14.38146004452388
IRIDIUM 42              
1 25077U 97077A   25213.10854480  .00000354  00000+0  11431-3 0  9998
2 25077  86.3947 220.4819 0001995  69.8871 290.2541 14.36378681447644
IRIDIUM 44              
1 25078U 97077B   25212.94177532  .00000419  00000+0  12627-3 0  9996
2 25078  86.3969 202.3672 0001061 144.3189 215.8081 14.40269262450140
IRIDIUM 45              
1 25104U 97082A   25213.52567072  .00026488  00000+0  91383-3 0  9999
2 25104  86.3577  25.8464 0114465 160.7021 199.8615 15.23694176459198
IRIDIUM 24              
1 25105U 97082B   25213.13472913  .00000411  00000+0  11904-3 0  9995
2 25105  86.3865  61.2257 0009433 294.6743  65.3474 14.42132115449941
IRIDIUM 51              
1 25262U 98018A   25213.03461177  .00040033  00000+0  81003-3 0  9999
2 25262  86.3813  33.5737 0083420  77.9047 283.1539 15.42488912454151
IRIDIUM 57              
1 25273U 98019B   25213.25919845  .00000332  00000+0  10773-3 0  9990
2 25273  86.3985 126.3862 0002105  83.9244 276.2192 14.35918233431462
